[{"OBJECT_NAME":"STARLINK-5819","OBJECT_ID":"2023-028AR","EPOCH":"2026-03-09T20:46:13.421568","MEAN_MOTION":14.98332198,"ECCENTRICITY":0.00027975,"INCLINATION":69.9999,"RA_OF_ASC_NODE":223.8414,"ARG_OF_PERICENTER":270.8149,"MEAN_ANOMALY":89.269,"EPHEMERIS_TYPE":0,"CLASSIFICATION_TYPE":"U","NORAD_CAT_ID":55780,"ELEMENT_SET_NO":999,"REV_AT_EPOCH":16656,"BSTAR":4.1584442e-5,"MEAN_MOTION_DOT":4.03e-6,"MEAN_MOTION_DDOT":0},{"OBJECT_NAME":"CZ-6A DEB","OBJECT_ID":"2022-151LD","EPOCH":"2026-03-09T16:54:45.205632","MEAN_MOTION":14.92245273,"ECCENTRICITY":0.00472182,"INCLINATION":98.6465,"RA_OF_ASC_NODE":142.156,"ARG_OF_PERICENTER":203.7976,"MEAN_ANOMALY":156.1058,"EPHEMERIS_TYPE":0,"CLASSIFICATION_TYPE":"U","NORAD_CAT_ID":54553,"ELEMENT_SET_NO":999,"REV_AT_EPOCH":10459,"BSTAR":0.004690798,"MEAN_MOTION_DOT":0.00049128,"MEAN_MOTION_DDOT":0}]
